start=new Date('2022-09-24T00:00:00.000Z').valueOf();
sats=[{"PERIAPSIS":"546.080","OBJECT_NAME":"STARLINK-2184","RA_OF_ASC_NODE":"135.5402","REF_FRAME":"TEME","GP_ID":"213333696","SITE":"AFETR","SEMIMAJOR_AXIS":"6925.340","OBJECT_ID":"2021-017AW","INCLINATION":"53.0557","TIME_SYSTEM":"UTC","RCS_SIZE":"LARGE","ECCENTRICITY":"0.00016250","TLE_LINE1":"1 47766U 21017AW  22266.89013518  .00001122  00000-0  94222-4 0  9993","OBJECT_TYPE":"PAYLOAD","MEAN_MOTION_DDOT":"0.0000000000000","REV_AT_EPOCH":"8717","ARG_OF_PERICENTER":"71.0629","MEAN_MOTION":"15.06402821","TLE_LINE2":"2 47766  53.0557 135.5402 0001625  71.0629 289.0536 15.06402821 87171","MEAN_ELEMENT_THEORY":"SGP4","DECAY_DATE":null,"MEAN_ANOMALY":"289.0536","APOAPSIS":"548.330","EPHEMERIS_TYPE":"0","BSTAR":"0.00009422200000","COUNTRY_CODE":"US","FILE":"3581681","CENTER_NAME":"EARTH","EPOCH":"2022-09-23T21:21:47.679552","PERIOD":"95.592","CLASSIFICATION_TYPE":"U","LAUNCH_DATE":"2021-03-04","ELEMENT_SET_NO":"999","NORAD_CAT_ID":"47766","MEAN_MOTION_DOT":"0.00001122"},{"CLASSIFICATION_TYPE":"U","PERIOD":"95.592","LAUNCH_DATE":"2021-03-04","ELEMENT_SET_NO":"999","NORAD_CAT_ID":"47767","MEAN_MOTION_DOT":"0.00000761","APOAPSIS":"548.261","EPHEMERIS_TYPE":"0","BSTAR":"0.00006999000000","COUNTRY_CODE":"US","FILE":"3581681","CENTER_NAME":"EARTH","EPOCH":"2022-09-23T20:24:06.945696","OBJECT_TYPE":"PAYLOAD","TLE_LINE1":"1 47767U 21017AX  22266.85008039  .00000761  00000-0  69990-4 0  9994","ECCENTRICITY":"0.00015170","MEAN_MOTION_DDOT":"0.0000000000000","REV_AT_EPOCH":"8744","ARG_OF_PERICENTER":"81.4369","MEAN_MOTION":"15.06401040","MEAN_ELEMENT_THEORY":"SGP4","TLE_LINE2":"2 47767  53.0544 120.7310 0001517  81.4369 278.6792 15.06401040 87448","DECAY_DATE":null,"MEAN_ANOMALY":"278.6792","PERIAPSIS":"546.160","OBJECT_NAME":"STARLINK-2185","RA_OF_ASC_NODE":"120.7310","REF_FRAME":"TEME","GP_ID":"213332944","SEMIMAJOR_AXIS":"6925.345","SITE":"AFETR","OBJECT_ID":"2021-017AX","INCLINATION":"53.0544","TIME_SYSTEM":"UTC","RCS_SIZE":"LARGE"},{"DECAY_DATE":null,"MEAN_ANOMALY":"285.8651","MEAN_MOTION":"15.06295623","TLE_LINE2":"2 47768  53.0562 135.9449 0002154  74.2575 285.8651 15.06295623 87203","MEAN_ELEMENT_THEORY":"SGP4","ARG_OF_PERICENTER":"74.2575","REV_AT_EPOCH":"8720","MEAN_MOTION_DDOT":"0.0000000000000","TLE_LINE1":"1 47768U 21017AY  22266.89113598  .00021644  00000-0  14716-2 0  9993","ECCENTRICITY":"0.00021540","OBJECT_TYPE":"PAYLOAD","RCS_SIZE":"LARGE","OBJECT_ID":"2021-017AY","INCLINATION":"53.0562","TIME_SYSTEM":"UTC","SEMIMAJOR_AXIS":"6925.668","GP_ID":"213332695","SITE":"AFETR","REF_FRAME":"TEME","RA_OF_ASC_NODE":"135.9449","PERIAPSIS":"546.042","OBJECT_NAME":"STARLINK-2189","MEAN_MOTION_DOT":"0.00021644","NORAD_CAT_ID":"47768","ELEMENT_SET_NO":"999","CLASSIFICATION_TYPE":"U","PERIOD":"95.599","LAUNCH_DATE":"2021-03-04","EPOCH":"2022-09-23T21:23:14.148672","CENTER_NAME":"EARTH","FILE":"3581681","BSTAR":"0.00147160000000","COUNTRY_CODE":"US","EPHEMERIS_TYPE":"0","APOAPSIS":"549.025"},{"MEAN_MOTION":"15.06403533","TLE_LINE2":"2 47769  53.0557 100.8127 0001465  77.4001 282.7152 15.06403533 87714","MEAN_ELEMENT_THEORY":"SGP4","DECAY_DATE":null,"MEAN_ANOMALY":"282.7152","ARG_OF_PERICENTER":"77.4001","REV_AT_EPOCH":"8771","OBJECT_TYPE":"PAYLOAD","TLE_LINE1":"1 47769U 21017AZ  22266.83348941  .00000922  00000-0  80766-4 0  9996","ECCENTRICITY":"0.00014650","MEAN_MOTION_DDOT":"0.0000000000000","OBJECT_ID":"2021-017AZ","INCLINATION":"53.0557","TIME_SYSTEM":"UTC","RCS_SIZE":"LARGE","GP_ID":"213333946","SITE":"AFETR","SEMIMAJOR_AXIS":"6925.338","REF_FRAME":"TEME","PERIAPSIS":"546.188","OBJECT_NAME":"STARLINK-2192","RA_OF_ASC_NODE":"100.8127","MEAN_MOTION_DOT":"0.00000922","ELEMENT_SET_NO":"999","NORAD_CAT_ID":"47769","CLASSIFICATION_TYPE":"U","PERIOD":"95.592","LAUNCH_DATE":"2021-03-04","EPOCH":"2022-09-23T20:00:13.485024","FILE":"3581681","CENTER_NAME":"EARTH","BSTAR":"0.00008076600000","COUNTRY_CODE":"US","APOAPSIS":"548.217","EPHEMERIS_TYPE":"0"},{"LAUNCH_DATE":"2021-03-04","PERIOD":"95.592","CLASSIFICATION_TYPE":"U","ELEMENT_SET_NO":"999","NORAD_CAT_ID":"47770","MEAN_MOTION_DOT":"0.00000912","APOAPSIS":"548.203","EPHEMERIS_TYPE":"0","COUNTRY_CODE":"US","BSTAR":"0.00008012500000","FILE":"3581681","CENTER_NAME":"EARTH","EPOCH":"2022-09-23T20:11:30.467040","OBJECT_TYPE":"PAYLOAD","TLE_LINE1":"1 47770U 21017BA  22266.84132485  .00000912  00000-0  80125-4 0  9991","ECCENTRICITY":"0.00014460","MEAN_MOTION_DDOT":"0.0000000000000","REV_AT_EPOCH":"8748","ARG_OF_PERICENTER":"78.7969","TLE_LINE2":"2 47770  53.0534 115.7526 0001446  78.7969 281.3182 15.06403943 87482","MEAN_ELEMENT_THEORY":"SGP4","MEAN_MOTION":"15.06403943","MEAN_ANOMALY":"281.3182","DECAY_DATE":null,"OBJECT_NAME":"STARLINK-2193","PERIAPSIS":"546.200","RA_OF_ASC_NODE":"115.7526","REF_FRAME":"TEME","SEMIMAJOR_AXIS":"6925.336","GP_ID":"213334196","SITE":"AFETR","INCLINATION":"53.0534","TIME_SYSTEM":"UTC","OBJECT_ID":"2021-017BA","RCS_SIZE":"LARGE"},{"ELEMENT_SET_NO":"999","NORAD_CAT_ID":"47771","MEAN_MOTION_DOT":"0.00002008","PERIOD":"95.592","CLASSIFICATION_TYPE":"U","LAUNCH_DATE":"2021-03-04","FILE":"3581681","CENTER_NAME":"EARTH","EPOCH":"2022-09-23T20:27:25.912800","APOAPSIS":"548.295","EPHEMERIS_TYPE":"0","BSTAR":"0.00015365000000","COUNTRY_CODE":"US","ARG_OF_PERICENTER":"68.8557","MEAN_MOTION":"15.06401120","TLE_LINE2":"2 47771  53.0552 115.7261 0001567  68.8557 291.2599 15.06401120 87494","MEAN_ELEMENT_THEORY":"SGP4","MEAN_ANOMALY":"291.2599","DECAY_DATE":null,"TLE_LINE1":"1 47771U 21017BB  22266.85238325  .00002008  00000-0  15365-3 0  9994","ECCENTRICITY":"0.00015670","OBJECT_TYPE":"PAYLOAD","MEAN_MOTION_DDOT":"0.0000000000000","REV_AT_EPOCH":"8749","GP_ID":"213332445","SEMIMAJOR_AXIS":"6925.345","SITE":"AFETR","OBJECT_ID":"2021-017BB","INCLINATION":"53.0552","TIME_SYSTEM":"UTC","RCS_SIZE":"LARGE","PERIAPSIS":"546.125","OBJECT_NAME":"STARLINK-2194","RA_OF_ASC_NODE":"115.7261","REF_FRAME":"TEME"},{"SEMIMAJOR_AXIS":"6925.335","GP_ID":"213306941","SITE":"AFETR","RCS_SIZE":"LARGE","OBJECT_ID":"2021-017BC","INCLINATION":"53.0551","TIME_SYSTEM":"UTC","RA_OF_ASC_NODE":"130.7717","PERIAPSIS":"546.178","OBJECT_NAME":"STARLINK-2195","REF_FRAME":"TEME","ARG_OF_PERICENTER":"94.1089","DECAY_DATE":null,"MEAN_ANOMALY":"266.0068","MEAN_MOTION":"15.06404439","TLE_LINE2":"2 47772  53.0551 130.7717 0001476  94.1089 266.0068 15.06404439 86618","MEAN_ELEMENT_THEORY":"SGP4","MEAN_MOTION_DDOT":"0.0000000000000","OBJECT_TYPE":"PAYLOAD","TLE_LINE1":"1 47772U 21017BC  22266.84178269 -.00000105  00000-0  11857-4 0  9994","ECCENTRICITY":"0.00014760","REV_AT_EPOCH":"8661","CENTER_NAME":"EARTH","FILE":"3581462","EPOCH":"2022-09-23T20:12:10.024416","EPHEMERIS_TYPE":"0","APOAPSIS":"548.222","BSTAR":"0.00001185700000","COUNTRY_CODE":"US","NORAD_CAT_ID":"47772","ELEMENT_SET_NO":"999","MEAN_MOTION_DOT":"-0.00000105","PERIOD":"95.592","CLASSIFICATION_TYPE":"U","LAUNCH_DATE":"2021-03-04"},{"EPOCH":"2022-09-23T20:06:51.988608","FILE":"3581681","CENTER_NAME":"EARTH","COUNTRY_CODE":"US","BSTAR":"-0.00003165200000","APOAPSIS":"548.278","EPHEMERIS_TYPE":"0","MEAN_MOTION_DOT":"-0.00000753","ELEMENT_SET_NO":"999","NORAD_CAT_ID":"47773","LAUNCH_DATE":"2021-03-04","CLASSIFICATION_TYPE":"U","PERIOD":"95.592","INCLINATION":"53.0540","TIME_SYSTEM":"UTC","OBJECT_ID":"2021-017BD","RCS_SIZE":"LARGE","GP_ID":"213333447","SITE":"AFETR","SEMIMAJOR_AXIS":"6925.359","REF_FRAME":"TEME","OBJECT_NAME":"STARLINK-2196","PERIAPSIS":"546.170","RA_OF_ASC_NODE":"130.7842","MEAN_ELEMENT_THEORY":"SGP4","TLE_LINE2":"2 47773  53.0540 130.7842 0001522  68.1448 291.9703 15.06396608 87249","MEAN_MOTION":"15.06396608","DECAY_DATE":null,"MEAN_ANOMALY":"291.9703","ARG_OF_PERICENTER":"68.1448","REV_AT_EPOCH":"8724","ECCENTRICITY":"0.00015220","TLE_LINE1":"1 47773U 21017BD  22266.83810172 -.00000753  00000-0 -31652-4 0  9995","OBJECT_TYPE":"PAYLOAD","MEAN_MOTION_DDOT":"0.0000000000000"},{"REV_AT_EPOCH":"8661","TLE_LINE1":"1 47774U 21017BE  22266.83441466  .00002015  00000-0  15408-3 0  9993","ECCENTRICITY":"0.00016180","OBJECT_TYPE":"PAYLOAD","MEAN_MOTION_DDOT":"0.0000000000000","MEAN_MOTION":"15.06407529","MEAN_ELEMENT_THEORY":"SGP4","TLE_LINE2":"2 47774  53.0531 130.8063 0001618  79.3197 280.7975 15.06407529 86619","DECAY_DATE":null,"MEAN_ANOMALY":"280.7975","ARG_OF_PERICENTER":"79.3197","REF_FRAME":"TEME","PERIAPSIS":"546.070","OBJECT_NAME":"STARLINK-2197","RA_OF_ASC_NODE":"130.8063","OBJECT_ID":"2021-017BE","INCLINATION":"53.0531","TIME_SYSTEM":"UTC","RCS_SIZE":"LARGE","GP_ID":"213307449","SEMIMAJOR_AXIS":"6925.325","SITE":"AFETR","PERIOD":"95.592","CLASSIFICATION_TYPE":"U","LAUNCH_DATE":"2021-03-04","MEAN_MOTION_DOT":"0.00002015","ELEMENT_SET_NO":"999","NORAD_CAT_ID":"47774","BSTAR":"0.00015408000000","COUNTRY_CODE":"US","APOAPSIS":"548.311","EPHEMERIS_TYPE":"0","EPOCH":"2022-09-23T20:01:33.426624","FILE":"3581462","CENTER_NAME":"EARTH"},{"FILE":"3581681","CENTER_NAME":"EARTH","EPOCH":"2022-09-23T20:17:29.192064","APOAPSIS":"548.336","EPHEMERIS_TYPE":"0","COUNTRY_CODE":"US","BSTAR":"0.00006734500000","ELEMENT_SET_NO":"999","NORAD_CAT_ID":"47775","MEAN_MOTION_DOT":"0.00000722","LAUNCH_DATE":"2021-03-04","CLASSIFICATION_TYPE":"U","PERIOD":"95.593","GP_ID":"213332945","SEMIMAJOR_AXIS":"6925.369","SITE":"AFETR","INCLINATION":"53.0546","TIME_SYSTEM":"UTC","OBJECT_ID":"2021-017BF","RCS_SIZE":"LARGE","OBJECT_NAME":"STARLINK-2198","PERIAPSIS":"546.132","RA_OF_ASC_NODE":"130.7465","REF_FRAME":"TEME","ARG_OF_PERICENTER":"72.1886","MEAN_ELEMENT_THEORY":"SGP4","TLE_LINE2":"2 47775  53.0546 130.7465 0001591  72.1886 287.9277 15.06393244 87306","MEAN_MOTION":"15.06393244","MEAN_ANOMALY":"287.9277","DECAY_DATE":null,"TLE_LINE1":"1 47775U 21017BF  22266.84547676  .00000722  00000-0  67345-4 0  9996","OBJECT_TYPE":"PAYLOAD","ECCENTRICITY":"0.00015910","MEAN_MOTION_DDOT":"0.0000000000000","REV_AT_EPOCH":"8730"}];
